STARLINK-36952          
1 68062U 26041Y   26071.66668981 -.01583235  00000+0 -75504-2 0  9992
2 68062  53.1585  47.0464 0000789 104.6812 175.1445 15.84931618  2850
STARLINK-37000          
1 68063U 26041Z   26071.66668981 -.01580947  00000+0 -75007-2 0  9998
2 68063  53.1583  47.0379 0000811 103.7197 179.9698 15.85033090  2856
STARLINK-36996          
1 68064U 26041AA  26071.66668981 -.01590295  00000+0 -75119-2 0  9990
2 68064  53.1582  47.0301 0000748  97.2145 190.3465 15.85141157  2853
STARLINK-36836          
1 68065U 26041AB  26071.66668981 -.01592697  00000+0 -74339-2 0  9992
2 68065  53.1583  47.0143 0000820 104.3586 190.6900 15.85389209  2858
STARLINK-36976          
1 68066U 26041AC  26071.66668981 -.01587448  00000+0 -73693-2 0  9993
2 68066  53.1581  47.0062 0000630 100.3486 198.5124 15.85492712  2850
STARLINK-36929          
1 68067U 26041AD  26071.66668981 -.01587796  00000+0 -74611-2 0  9991
2 68067  53.1580  47.0219 0000609  96.6808 194.7253 15.85244796  2853
STARLINK-36990          
1 68068U 26041AE  26071.66668981 -.01592734  00000+0 -73659-2 0  9991
2 68068  53.1580  46.9981 0000635  94.4953 208.3062 15.85579514  2853
STARLINK-36766          
1 68069U 26042A   26071.58335648 -.01491604  64279-3 -40716-2 0  9999
2 68069  53.1596 180.4767 0001207  66.3707  77.6206 15.93505623  2506
STARLINK-36823          
1 68070U 26042B   26071.58335648 -.01492450  64421-3 -40487-2 0  9995
2 68070  53.1591 180.4712 0001114  73.7446  72.8774 15.93623474  2504
STARLINK-36970          
1 68071U 26042C   26071.58335648 -.01485353  64012-3 -39791-2 0  9992
2 68071  53.1597 180.4606 0001298  65.1759  86.5694 15.93859060  2514
STARLINK-36972          
1 68072U 26042D   26071.58335648 -.01488106  64154-3 -40113-2 0  9999
2 68072  53.1596 180.4665 0001154  67.7177  81.2114 15.93742790  2512
STARLINK-37074          
1 68073U 26042E   26071.58335648 -.01487903  64288-3 -39615-2 0  9997
2 68073  53.1596 180.4555 0001179  67.9959  86.3652 15.93975942  2518
STARLINK-37045          
1 68074U 26042F   26071.58335648 -.01485416  64166-3 -39302-2 0  9993
2 68074  53.1594 180.4496 0001260  66.2195  90.9073 15.94093012  2514
STARLINK-37026          
1 68075U 26042G   26071.58335648 -.01496797  65149-3 -39350-2 0  9993
2 68075  53.1595 180.4438 0001049  65.8355  94.1214 15.94216169  2513
STARLINK-37023          
1 68076U 26042H   26071.58335648 -.01491731  64821-3 -38973-2 0  9993
2 68076  53.1595 180.4383 0001124  68.3642  94.2187 15.94331832  2519
STARLINK-37036          
1 68077U 26042J   26071.58335648 -.01491762  64901-3 -38726-2 0  9993
2 68077  53.1596 180.4335 0001246  62.9780 101.9564 15.94451179  2518
