[{"OBJECT_NAME":"STARLINK-36952","OBJECT_ID":"2026-041Y","EPOCH":"2026-03-12T16:00:01.999584","MEAN_MOTION":15.84931618,"ECCENTRICITY":7.89e-5,"INCLINATION":53.1585,"RA_OF_ASC_NODE":47.0464,"ARG_OF_PERICENTER":104.6812,"MEAN_ANOMALY":175.1445,"EPHEMERIS_TYPE":0,"CLASSIFICATION_TYPE":"U","NORAD_CAT_ID":68062,"ELEMENT_SET_NO":999,"REV_AT_EPOCH":285,"BSTAR":-0.0075504,"MEAN_MOTION_DOT":-0.01583235,"MEAN_MOTION_DDOT":0},{"OBJECT_NAME":"STARLINK-37000","OBJECT_ID":"2026-041Z","EPOCH":"2026-03-12T16:00:01.999584","MEAN_MOTION":15.8503309,"ECCENTRICITY":8.11e-5,"INCLINATION":53.1583,"RA_OF_ASC_NODE":47.0379,"ARG_OF_PERICENTER":103.7197,"MEAN_ANOMALY":179.9698,"EPHEMERIS_TYPE":0,"CLASSIFICATION_TYPE":"U","NORAD_CAT_ID":68063,"ELEMENT_SET_NO":999,"REV_AT_EPOCH":285,"BSTAR":-0.0075007,"MEAN_MOTION_DOT":-0.01580947,"MEAN_MOTION_DDOT":0},{"OBJECT_NAME":"STARLINK-36996","OBJECT_ID":"2026-041AA","EPOCH":"2026-03-12T16:00:01.999584","MEAN_MOTION":15.85141157,"ECCENTRICITY":7.48e-5,"INCLINATION":53.1582,"RA_OF_ASC_NODE":47.0301,"ARG_OF_PERICENTER":97.2145,"MEAN_ANOMALY":190.3465,"EPHEMERIS_TYPE":0,"CLASSIFICATION_TYPE":"U","NORAD_CAT_ID":68064,"ELEMENT_SET_NO":999,"REV_AT_EPOCH":285,"BSTAR":-0.0075119,"MEAN_MOTION_DOT":-0.01590295,"MEAN_MOTION_DDOT":0},{"OBJECT_NAME":"STARLINK-36836","OBJECT_ID":"2026-041AB","EPOCH":"2026-03-12T16:00:01.999584","MEAN_MOTION":15.85389209,"ECCENTRICITY":8.2e-5,"INCLINATION":53.1583,"RA_OF_ASC_NODE":47.0143,"ARG_OF_PERICENTER":104.3586,"MEAN_ANOMALY":190.69,"EPHEMERIS_TYPE":0,"CLASSIFICATION_TYPE":"U","NORAD_CAT_ID":68065,"ELEMENT_SET_NO":999,"REV_AT_EPOCH":285,"BSTAR":-0.0074339,"MEAN_MOTION_DOT":-0.01592697,"MEAN_MOTION_DDOT":0},{"OBJECT_NAME":"STARLINK-36976","OBJECT_ID":"2026-041AC","EPOCH":"2026-03-12T16:00:01.999584","MEAN_MOTION":15.85492712,"ECCENTRICITY":6.3e-5,"INCLINATION":53.1581,"RA_OF_ASC_NODE":47.0062,"ARG_OF_PERICENTER":100.3486,"MEAN_ANOMALY":198.5124,"EPHEMERIS_TYPE":0,"CLASSIFICATION_TYPE":"U","NORAD_CAT_ID":68066,"ELEMENT_SET_NO":999,"REV_AT_EPOCH":285,"BSTAR":-0.0073693,"MEAN_MOTION_DOT":-0.01587448,"MEAN_MOTION_DDOT":0},{"OBJECT_NAME":"STARLINK-36929","OBJECT_ID":"2026-041AD","EPOCH":"2026-03-12T16:00:01.999584","MEAN_MOTION":15.85244796,"ECCENTRICITY":6.09e-5,"INCLINATION":53.158,"RA_OF_ASC_NODE":47.0219,"ARG_OF_PERICENTER":96.6808,"MEAN_ANOMALY":194.7253,"EPHEMERIS_TYPE":0,"CLASSIFICATION_TYPE":"U","NORAD_CAT_ID":68067,"ELEMENT_SET_NO":999,"REV_AT_EPOCH":285,"BSTAR":-0.0074611,"MEAN_MOTION_DOT":-0.01587796,"MEAN_MOTION_DDOT":0},{"OBJECT_NAME":"STARLINK-36990","OBJECT_ID":"2026-041AE","EPOCH":"2026-03-12T16:00:01.999584","MEAN_MOTION":15.85579514,"ECCENTRICITY":6.35e-5,"INCLINATION":53.158,"RA_OF_ASC_NODE":46.9981,"ARG_OF_PERICENTER":94.4953,"MEAN_ANOMALY":208.3062,"EPHEMERIS_TYPE":0,"CLASSIFICATION_TYPE":"U","NORAD_CAT_ID":68068,"ELEMENT_SET_NO":999,"REV_AT_EPOCH":285,"BSTAR":-0.0073659,"MEAN_MOTION_DOT":-0.01592734,"MEAN_MOTION_DDOT":0},{"OBJECT_NAME":"STARLINK-36766","OBJECT_ID":"2026-042A","EPOCH":"2026-03-12T14:00:01.999872","MEAN_MOTION":15.93505623,"ECCENTRICITY":0.00012075,"INCLINATION":53.1596,"RA_OF_ASC_NODE":180.4767,"ARG_OF_PERICENTER":66.3707,"MEAN_ANOMALY":77.6206,"EPHEMERIS_TYPE":0,"CLASSIFICATION_TYPE":"U","NORAD_CAT_ID":68069,"ELEMENT_SET_NO":999,"REV_AT_EPOCH":250,"BSTAR":-0.0040715804,"MEAN_MOTION_DOT":-0.01491604,"MEAN_MOTION_DDOT":0.00064279075},{"OBJECT_NAME":"STARLINK-36823","OBJECT_ID":"2026-042B","EPOCH":"2026-03-12T14:00:01.999872","MEAN_MOTION":15.93623474,"ECCENTRICITY":0.00011147,"INCLINATION":53.1591,"RA_OF_ASC_NODE":180.4712,"ARG_OF_PERICENTER":73.7446,"MEAN_ANOMALY":72.8774,"EPHEMERIS_TYPE":0,"CLASSIFICATION_TYPE":"U","NORAD_CAT_ID":68070,"ELEMENT_SET_NO":999,"REV_AT_EPOCH":250,"BSTAR":-0.0040486754,"MEAN_MOTION_DOT":-0.0149245,"MEAN_MOTION_DDOT":0.00064421066},{"OBJECT_NAME":"STARLINK-36970","OBJECT_ID":"2026-042C","EPOCH":"2026-03-12T14:00:01.999872","MEAN_MOTION":15.9385906,"ECCENTRICITY":0.00012984,"INCLINATION":53.1597,"RA_OF_ASC_NODE":180.4606,"ARG_OF_PERICENTER":65.1759,"MEAN_ANOMALY":86.5694,"EPHEMERIS_TYPE":0,"CLASSIFICATION_TYPE":"U","NORAD_CAT_ID":68071,"ELEMENT_SET_NO":999,"REV_AT_EPOCH":251,"BSTAR":-0.0039791472,"MEAN_MOTION_DOT":-0.01485353,"MEAN_MOTION_DDOT":0.0006401152},{"OBJECT_NAME":"STARLINK-36972","OBJECT_ID":"2026-042D","EPOCH":"2026-03-12T14:00:01.999872","MEAN_MOTION":15.9374279,"ECCENTRICITY":0.0001154,"INCLINATION":53.1596,"RA_OF_ASC_NODE":180.4665,"ARG_OF_PERICENTER":67.7177,"MEAN_ANOMALY":81.2114,"EPHEMERIS_TYPE":0,"CLASSIFICATION_TYPE":"U","NORAD_CAT_ID":68072,"ELEMENT_SET_NO":999,"REV_AT_EPOCH":251,"BSTAR":-0.0040113207,"MEAN_MOTION_DOT":-0.01488106,"MEAN_MOTION_DDOT":0.00064154428},{"OBJECT_NAME":"STARLINK-37074","OBJECT_ID":"2026-042E","EPOCH":"2026-03-12T14:00:01.999872","MEAN_MOTION":15.93975942,"ECCENTRICITY":0.00011792,"INCLINATION":53.1596,"RA_OF_ASC_NODE":180.4555,"ARG_OF_PERICENTER":67.9959,"MEAN_ANOMALY":86.3652,"EPHEMERIS_TYPE":0,"CLASSIFICATION_TYPE":"U","NORAD_CAT_ID":68073,"ELEMENT_SET_NO":999,"REV_AT_EPOCH":251,"BSTAR":-0.0039614856,"MEAN_MOTION_DOT":-0.01487903,"MEAN_MOTION_DDOT":0.00064287585},{"OBJECT_NAME":"STARLINK-37045","OBJECT_ID":"2026-042F","EPOCH":"2026-03-12T14:00:01.999872","MEAN_MOTION":15.94093012,"ECCENTRICITY":0.00012605,"INCLINATION":53.1594,"RA_OF_ASC_NODE":180.4496,"ARG_OF_PERICENTER":66.2195,"MEAN_ANOMALY":90.9073,"EPHEMERIS_TYPE":0,"CLASSIFICATION_TYPE":"U","NORAD_CAT_ID":68074,"ELEMENT_SET_NO":999,"REV_AT_EPOCH":251,"BSTAR":-0.0039302175,"MEAN_MOTION_DOT":-0.01485416,"MEAN_MOTION_DDOT":0.00064166072},{"OBJECT_NAME":"STARLINK-37026","OBJECT_ID":"2026-042G","EPOCH":"2026-03-12T14:00:01.999872","MEAN_MOTION":15.94216169,"ECCENTRICITY":0.0001049,"INCLINATION":53.1595,"RA_OF_ASC_NODE":180.4438,"ARG_OF_PERICENTER":65.8355,"MEAN_ANOMALY":94.1214,"EPHEMERIS_TYPE":0,"CLASSIFICATION_TYPE":"U","NORAD_CAT_ID":68075,"ELEMENT_SET_NO":999,"REV_AT_EPOCH":251,"BSTAR":-0.0039349523,"MEAN_MOTION_DOT":-0.01496797,"MEAN_MOTION_DDOT":0.00065148745},{"OBJECT_NAME":"STARLINK-37023","OBJECT_ID":"2026-042H","EPOCH":"2026-03-12T14:00:01.999872","MEAN_MOTION":15.94331832,"ECCENTRICITY":0.00011246,"INCLINATION":53.1595,"RA_OF_ASC_NODE":180.4383,"ARG_OF_PERICENTER":68.3642,"MEAN_ANOMALY":94.2187,"EPHEMERIS_TYPE":0,"CLASSIFICATION_TYPE":"U","NORAD_CAT_ID":68076,"ELEMENT_SET_NO":999,"REV_AT_EPOCH":251,"BSTAR":-0.0038973374,"MEAN_MOTION_DOT":-0.01491731,"MEAN_MOTION_DDOT":0.00064820781},{"OBJECT_NAME":"STARLINK-37036","OBJECT_ID":"2026-042J","EPOCH":"2026-03-12T14:00:01.999872","MEAN_MOTION":15.94451179,"ECCENTRICITY":0.00012469,"INCLINATION":53.1596,"RA_OF_ASC_NODE":180.4335,"ARG_OF_PERICENTER":62.978,"MEAN_ANOMALY":101.9564,"EPHEMERIS_TYPE":0,"CLASSIFICATION_TYPE":"U","NORAD_CAT_ID":68077,"ELEMENT_SET_NO":999,"REV_AT_EPOCH":251,"BSTAR":-0.003872628,"MEAN_MOTION_DOT":-0.01491762,"MEAN_MOTION_DDOT":0.00064901014}]
